NORAD_CAT_ID,OBJECT_NAME,OBJECT_TYPE,EPOCH,MEAN_MOTION,ECCENTRICITY,INCLINATION,RA_OF_ASC_NODE,ARG_OF_PERICENTER,MEAN_ANOMALY,BSTAR,MEAN_MOTION_DOT,MEAN_MOTION_DDOT,TLE_LINE0,TLE_LINE1,TLE_LINE2,SEMIMAJOR_AXIS,PERIOD,APOGEE,PERIGEE,DECAYED
54163.0,STARLINK-5161,PAYLOAD,2024-06-14 19:43:10,15.08838976,0.0001343,53.2171,325.3479,77.6941,282.4201,0.00010958,1.456e-05,0.0,0 STARLINK-5161,1 54163U 22141G   24166.82164736  .00001456  00000-0  10958-3 0  9997,2 54163  53.2171 325.3479 0001343  77.6941 282.4201 15.08838976 90315,6917.884,95.438,540.678,538.819,0.0
54163.0,STARLINK-5161,PAYLOAD,2024-06-15 14:47:47,15.08846914,0.0001269,53.2166,321.7799,81.4005,278.713,0.00015699,2.212e-05,0.0,0 STARLINK-5161,1 54163U 22141G   24167.61652411  .00002212  00000-0  15699-3 0  9995,2 54163  53.2166 321.7799 0001269  81.4005 278.7130 15.08846914 90438,6917.859,95.437,540.602,538.846,0.0
54163.0,STARLINK-5161,PAYLOAD,2024-06-15 19:33:56,15.08854418,0.0001279,53.2151,320.8878,76.0136,284.0999,0.00033559,5.059e-05,0.0,0 STARLINK-5161,1 54163U 22141G   24167.81524098  .00005059  00000-0  33559-3 0  9993,2 54163  53.2151 320.8878 0001279  76.0136 284.0999 15.08854418 90460,6917.836,95.437,540.586,538.817,0.0
54163.0,STARLINK-5161,PAYLOAD,2024-06-16 14:38:34,15.08844953,0.0001213,53.2153,317.3151,94.3285,265.7846,0.00018432,2.647e-05,0.0,0 STARLINK-5161,1 54163U 22141G   24168.61012224  .00002647  00000-0  18432-3 0  9998,2 54163  53.2153 317.3151 0001213  94.3285 265.7846 15.08844953 90586,6917.865,95.437,540.569,538.891,0.0
54163.0,STARLINK-5161,PAYLOAD,2024-06-16 16:13:57,15.08845001,0.0001213,53.2159,317.0201,84.6904,275.4226,0.00020293,2.944e-05,0.0,0 STARLINK-5161,1 54163U 22141G   24168.67636279  .00002944  00000-0  20293-3 0  9994,2 54163  53.2159 317.0201 0001213  84.6904 275.4226 15.08845001 90591,6917.865,95.437,540.569,538.891,0.0
54163.0,STARLINK-5161,PAYLOAD,2024-06-17 19:15:31,15.08840622,0.0001228,53.2168,311.9658,87.2493,272.864,-2.5178e-05,-6.89e-06,0.0,0 STARLINK-5161,1 54163U 22141G   24169.80244584 -.00000689  00000-0 -25178-4 0  9998,2 54163  53.2168 311.9658 0001228  87.2493 272.8640 15.08840622 90762,6917.878,95.438,540.593,538.894,0.0
54163.0,STARLINK-5161,PAYLOAD,2024-06-18 14:20:09,15.08839854,0.0001211,53.2175,308.3978,91.3124,268.8007,5.6188e-05,6.06e-06,0.0,0 STARLINK-5161,1 54163U 22141G   24170.59732703  .00000606  00000-0  56188-4 0  9993,2 54163  53.2175 308.3978 0001211  91.3124 268.8007 15.08839854 90884,6917.881,95.438,540.584,538.908,0.0
54163.0,STARLINK-5161,PAYLOAD,2024-06-18 15:55:31,15.08842746,0.0001207,53.2178,308.0997,93.9269,266.1861,7.5454e-05,9.13e-06,0.0,0 STARLINK-5161,1 54163U 22141G   24170.66356431  .00000913  00000-0  75454-4 0  9999,2 54163  53.2178 308.0997 0001207  93.9269 266.1861 15.08842746 90892,6917.872,95.437,540.572,538.902,0.0
54163.0,STARLINK-5161,PAYLOAD,2024-06-19 12:35:33,15.08836781,0.0001264,53.2178,304.235,94.4914,265.6223,8.4918e-05,1.064e-05,0.0,0 STARLINK-5161,1 54163U 22141G   24171.52468889  .00001064  00000-0  84918-4 0  9999,2 54163  53.2178 304.2350 0001264  94.4914 265.6223 15.08836781 91023,6917.89,95.438,540.63,538.881,0.0
54163.0,STARLINK-5161,PAYLOAD,2024-06-19 14:10:56,15.08837092,0.000127,53.218,303.9378,94.3688,265.7449,8.4255e-05,1.053e-05,0.0,0 STARLINK-5161,1 54163U 22141G   24171.59092884  .00001053  00000-0  84255-4 0  9996,2 54163  53.2180 303.9378 0001270  94.3688 265.7449 15.08837092 91034,6917.889,95.438,540.633,538.876,0.0
54163.0,STARLINK-5161,PAYLOAD,2024-06-19 15:46:19,15.08839768,0.0001196,53.2172,303.6403,95.115,264.9978,0.00011637,1.565e-05,0.0,0 STARLINK-5161,1 54163U 22141G   24171.65716649  .00001565  00000-0  11637-3 0  9996,2 54163  53.2172 303.6403 0001196  95.1150 264.9978 15.08839768 91042,6917.881,95.438,540.573,538.919,0.0
54163.0,STARLINK-5161,PAYLOAD,2024-06-20 14:01:43,15.08838662,0.0001186,53.218,299.4774,91.5298,268.583,3.4292e-05,2.58e-06,0.0,0 STARLINK-5161,1 54163U 22141G   24172.58453099  .00000258  00000-0  34292-4 0  9997,2 54163  53.2180 299.4774 0001186  91.5298 268.5830 15.08838662 91180,6917.884,95.438,540.57,538.929,0.0
54163.0,STARLINK-5161,PAYLOAD,2024-06-21 13:52:30,15.08837131,0.0001255,53.2185,295.0185,96.7435,263.37,1.8308e-05,4e-08,0.0,0 STARLINK-5161,1 54163U 22141G   24173.57813472  .00000004  00000-0  18308-4 0  9991,2 54163  53.2185 295.0185 0001255  96.7435 263.3700 15.08837131 91336,6917.889,95.438,540.622,538.886,0.0
54163.0,STARLINK-5161,PAYLOAD,2024-06-21 15:27:53,15.08839205,0.0001255,53.2187,294.7213,96.2161,263.8974,3.624e-05,2.89e-06,0.0,0 STARLINK-5161,1 54163U 22141G   24173.64437295  .00000289  00000-0  36240-4 0  9994,2 54163  53.2187 294.7213 0001255  96.2161 263.8974 15.08839205 91340,6917.883,95.438,540.616,538.88,0.0
54163.0,STARLINK-5161,PAYLOAD,2024-06-22 13:43:17,15.08837303,0.0001343,53.2193,290.5581,94.513,265.6015,6.0885e-05,6.81e-06,0.0,0 STARLINK-5161,1 54163U 22141G   24174.57173574  .00000681  00000-0  60885-4 0  9992,2 54163  53.2193 290.5581 0001343  94.5130 265.6015 15.08837303 91482,6917.889,95.438,540.683,538.825,0.0
54163.0,STARLINK-5161,PAYLOAD,2024-06-22 15:18:40,15.08841649,0.0001378,53.2191,290.2608,92.4505,267.6645,4.5188e-05,4.31e-06,0.0,0 STARLINK-5161,1 54163U 22141G   24174.63797369  .00000431  00000-0  45188-4 0  9995,2 54163  53.2191 290.2608 0001378  92.4505 267.6645 15.08841649 91498,6917.875,95.437,540.694,538.787,0.0
54163.0,STARLINK-5161,PAYLOAD,2024-06-23 11:58:41,15.08837643,0.000124,53.2186,286.3949,87.7481,272.3653,9.1775e-05,1.173e-05,0.0,0 STARLINK-5161,1 54163U 22141G   24175.49909610  .00001173  00000-0  91775-4 0  9991,2 54163  53.2186 286.3949 0001240  87.7481 272.3653 15.08837643 91620,6917.888,95.438,540.61,538.895,0.0
54163.0,STARLINK-5161,PAYLOAD,2024-06-23 13:34:04,15.08841636,0.0001194,53.2183,286.097,82.2461,277.8667,7.6984e-05,9.38e-06,0.0,0 STARLINK-5161,1 54163U 22141G   24175.56533423  .00000938  00000-0  76984-4 0  9997,2 54163  53.2183 286.0970 0001194  82.2461 277.8667 15.08841636 91637,6917.875,95.437,540.566,538.914,0.0
54163.0,STARLINK-5161,PAYLOAD,2024-06-24 13:24:51,15.08846273,0.0001356,53.218,281.6376,67.438,292.6756,8.7219e-05,1.101e-05,0.0,0 STARLINK-5161,1 54163U 22141G   24176.55893038  .00001101  00000-0  87219-4 0  9994,2 54163  53.2180 281.6376 0001356  67.4380 292.6756 15.08846273 91782,6917.861,95.437,540.664,538.788,0.0
54163.0,STARLINK-5161,PAYLOAD,2024-06-25 13:15:38,15.08840841,0.0001329,53.2175,277.1769,74.6983,285.4156,1.4245e-05,-6.1e-07,0.0,0 STARLINK-5161,1 54163U 22141G   24177.55253423 -.00000061  00000-0  14245-4 0  9997,2 54163  53.2175 277.1769 0001329  74.6983 285.4156 15.08840841 91937,6917.878,95.438,540.662,538.823,0.0
54163.0,STARLINK-5161,PAYLOAD,2024-06-26 11:31:01,15.08871153,0.0001354,53.2176,273.0157,103.0408,257.0735,-0.00033273,-5.584e-05,0.0,0 STARLINK-5161,1 54163U 22141G   24178.47988297 -.00005584  00000-0 -33273-3 0  9990,2 54163  53.2176 273.0157 0001354 103.0408 257.0735 15.08871153 92075,6917.785,95.436,540.587,538.714,0.0
54163.0,STARLINK-5161,PAYLOAD,2024-06-26 14:41:48,15.08850661,0.0001393,53.2182,272.4143,113.6903,246.4236,2.2986e-05,7.8e-07,0.0,0 STARLINK-5161,1 54163U 22141G   24178.61236342  .00000078  00000-0  22986-4 0  9994,2 54163  53.2182 272.4143 0001393 113.6903 246.4236 15.08850661 92091,6917.848,95.437,540.676,538.749,0.0
54163.0,STARLINK-5161,PAYLOAD,2024-06-27 12:57:13,15.08837151,0.0001212,53.2169,268.2548,97.5989,262.5141,5.7514e-06,-1.96e-06,0.0,0 STARLINK-5161,1 54163U 22141G   24179.53973479 -.00000196  00000-0  57514-5 0  9993,2 54163  53.2169 268.2548 0001212  97.5989 262.5141 15.08837151 92231,6917.889,95.438,540.593,538.916,0.0
54163.0,STARLINK-5161,PAYLOAD,2024-06-27 14:32:36,15.08838967,0.0001284,53.2175,267.9563,100.8491,259.2646,2.3299e-05,8.3e-07,0.0,0 STARLINK-5161,1 54163U 22141G   24179.60597301  .00000083  00000-0  23299-4 0  9993,2 54163  53.2175 267.9563 0001284 100.8491 259.2646 15.08838967 92246,6917.884,95.438,540.637,538.86,0.0
54163.0,STARLINK-5161,PAYLOAD,2024-06-28 12:47:59,15.08848612,0.0001013,53.2154,263.7965,102.6858,257.4248,-2.2864e-05,-6.52e-06,0.0,0 STARLINK-5161,1 54163U 22141G   24180.53332903 -.00000652  00000-0 -22864-4 0  9993,2 54163  53.2154 263.7965 0001013 102.6858 257.4248 15.08848612 92381,6917.854,95.437,540.42,539.018,0.0
54163.0,STARLINK-5161,PAYLOAD,2024-06-28 14:23:22,15.08855465,0.0001228,53.2166,263.495,104.9902,255.1226,0.00013661,1.888e-05,0.0,0 STARLINK-5161,1 54163U 22141G   24180.59956122  .00001888  00000-0  13661-3 0  9998,2 54163  53.2166 263.4950 0001228 104.9902 255.1226 15.08855465 92394,6917.833,95.437,540.548,538.849,0.0
54163.0,STARLINK-5161,PAYLOAD,2024-06-28 22:20:18,15.0884118,0.0001328,53.2167,262.0079,95.8883,264.2261,5.4258e-05,5.76e-06,0.0,0 STARLINK-5161,1 54163U 22141G   24180.93077114  .00000576  00000-0  54258-4 0  9992,2 54163  53.2167 262.0079 0001328  95.8883 264.2261 15.08841180 92444,6917.877,95.437,540.66,538.823,0.0
54163.0,STARLINK-5161,PAYLOAD,2024-06-29 12:38:48,15.0883085,0.0001329,53.2167,259.3329,73.6502,286.4636,1.2203e-05,-9.4e-07,0.0,0 STARLINK-5161,1 54163U 22141G   24181.52694589 -.00000094  00000-0  12203-4 0  9999,2 54163  53.2167 259.3329 0001329  73.6502 286.4636 15.08830850 92538,6917.908,95.438,540.693,538.854,0.0
54163.0,STARLINK-5161,PAYLOAD,2024-06-29 22:11:06,15.08839783,0.0001352,53.2168,257.5488,78.2199,281.8944,8.6352e-05,1.087e-05,0.0,0 STARLINK-5161,1 54163U 22141G   24181.92437938  .00001087  00000-0  86352-4 0  9994,2 54163  53.2168 257.5488 0001352  78.2199 281.8944 15.08839783 92595,6917.881,95.438,540.681,538.811,0.0
54163.0,STARLINK-5161,PAYLOAD,2024-06-30 10:54:10,15.08850989,0.0001009,53.2151,255.168,72.4111,287.6991,2.3986e-05,9.4e-07,0.0,0 STARLINK-5161,1 54163U 22141G   24182.45429349  .00000094  00000-0  23986-4 0  9991,2 54163  53.2151 255.1680 0001009  72.4111 287.6991 15.08850989 92670,6917.847,95.437,540.41,539.014,0.0
